NORAD_CAT_ID,OBJECT_NAME,OBJECT_TYPE,EPOCH,MEAN_MOTION,ECCENTRICITY,INCLINATION,RA_OF_ASC_NODE,ARG_OF_PERICENTER,MEAN_ANOMALY,BSTAR,MEAN_MOTION_DOT,MEAN_MOTION_DDOT,TLE_LINE0,TLE_LINE1,TLE_LINE2,SEMIMAJOR_AXIS,PERIOD,APOGEE,PERIGEE,DECAYED
53553.0,STARLINK-4501,PAYLOAD,2024-01-13 07:45:17,15.08841594,0.0001638,53.2193,354.128,88.9754,271.1426,9.5506e-05,1.232e-05,0.0,0 STARLINK-4501,1 53553U 22101AC  24013.32312166  .00001232  00000-0  95506-4 0  9998,2 53553  53.2193 354.1280 0001638  88.9754 271.1426 15.08841594 77594,6917.876,95.437,540.874,538.607,0.0
53553.0,STARLINK-4501,PAYLOAD,2024-01-14 04:25:19,15.08834588,0.0001601,53.2189,350.2669,92.924,267.1935,0.00010412,1.369e-05,0.0,0 STARLINK-4501,1 53553U 22101AC  24014.18424783  .00001369  00000-0  10412-3 0  9995,2 53553  53.2189 350.2669 0001601  92.9240 267.1935 15.08834588 77722,6917.897,95.438,540.869,538.654,0.0
53553.0,STARLINK-4501,PAYLOAD,2024-01-15 02:40:42,15.08867433,0.0001834,53.2184,346.1027,87.605,272.5152,-0.00025831,-4.4e-05,0.0,0 STARLINK-4501,1 53553U 22101AC  24015.11160162 -.00004400  00000-0 -25831-3 0  9999,2 53553  53.2184 346.1027 0001834  87.6050 272.5152 15.08867433 77868,6917.797,95.436,540.93,538.393,0.0
53553.0,STARLINK-4501,PAYLOAD,2024-01-15 07:26:51,15.08859853,0.0002022,53.2201,345.2024,87.9788,272.1436,1.4681e-06,-2.65e-06,0.0,0 STARLINK-4501,1 53553U 22101AC  24015.31031528 -.00000265  00000-0  14681-5 0  9991,2 53553  53.2201 345.2024 0002022  87.9788 272.1436 15.08859853 78551,6917.82,95.436,541.083,538.286,0.0
53553.0,STARLINK-4501,PAYLOAD,2024-01-16 07:17:39,15.08841895,0.0001954,53.219,340.7465,119.4203,240.6985,5.739e-05,6.25e-06,0.0,0 STARLINK-4501,1 53553U 22101AC  24016.30392420  .00000625  00000-0  57390-4 0  9994,2 53553  53.2190 340.7465 0001954 119.4203 240.6985 15.08841895 78043,6917.875,95.437,541.091,538.388,0.0
53553.0,STARLINK-4501,PAYLOAD,2024-01-17 03:57:39,15.08851549,0.0001386,53.2187,336.8834,82.3615,277.7535,-4.4402e-06,-3.59e-06,0.0,0 STARLINK-4501,1 53553U 22101AC  24017.16504204 -.00000359  00000-0 -44402-5 0  9991,2 53553  53.2187 336.8834 0001386  82.3615 277.7535 15.08851549 78835,6917.845,95.437,540.669,538.751,0.0
53553.0,STARLINK-4501,PAYLOAD,2024-01-18 02:13:04,15.08841671,0.0001266,53.2183,332.7213,100.183,259.9305,-2.9983e-06,-3.36e-06,0.0,0 STARLINK-4501,1 53553U 22101AC  24018.09241083 -.00000336  00000-0 -29983-5 0  9999,2 53553  53.2183 332.7213 0001266 100.1830 259.9305 15.08841671 78317,6917.875,95.437,540.616,538.864,0.0
53553.0,STARLINK-4501,PAYLOAD,2024-01-18 21:17:42,15.0883782,0.0001303,53.2179,329.1539,83.2015,276.9126,4.7409e-05,4.67e-06,0.0,0 STARLINK-4501,1 53553U 22101AC  24018.88729443  .00000467  00000-0  47409-4 0  9992,2 53553  53.2179 329.1539 0001303  83.2015 276.9126 15.08837820 79098,6917.887,95.438,540.653,538.851,0.0
53553.0,STARLINK-4501,PAYLOAD,2024-01-19 03:39:13,15.08848188,0.0001343,53.2174,327.9643,98.9666,261.1479,0.00013908,1.927e-05,0.0,0 STARLINK-4501,1 53553U 22101AC  24019.15224500  .00001927  00000-0  13908-3 0  9995,2 53553  53.2174 327.9643 0001343  98.9666 261.1479 15.08848188 78471,6917.855,95.437,540.649,538.791,0.0
53553.0,STARLINK-4501,PAYLOAD,2024-01-19 06:49:59,15.08852244,0.0001412,53.2177,327.3672,104.4888,255.6261,0.00015931,2.249e-05,0.0,0 STARLINK-4501,1 53553U 22101AC  24019.28472165  .00002249  00000-0  15931-3 0  9997,2 53553  53.2177 327.3672 0001412 104.4888 255.6261 15.08852244 79157,6917.843,95.437,540.685,538.731,0.0
53553.0,STARLINK-4501,PAYLOAD,2024-01-20 03:30:02,15.08836413,0.0001572,53.2179,323.5069,58.9059,301.2087,7.0206e-05,8.29e-06,0.0,0 STARLINK-4501,1 53553U 22101AC  24020.14585822  .00000829  00000-0  70206-4 0  9998,2 53553  53.2179 323.5069 0001572  58.9059 301.2087 15.08836413 78622,6917.891,95.438,540.844,538.669,0.0
53553.0,STARLINK-4501,PAYLOAD,2024-01-20 06:40:47,15.0884238,0.000142,53.2185,322.9063,90.3156,269.7999,9.9076e-05,1.289e-05,0.0,0 STARLINK-4501,1 53553U 22101AC  24020.27833228  .00001289  00000-0  99076-4 0  9995,2 53553  53.2185 322.9063 0001420  90.3156 269.7999 15.08842380 78648,6917.873,95.437,540.72,538.756,0.0
53553.0,STARLINK-4501,PAYLOAD,2024-01-20 20:59:16,15.0883877,0.0001482,53.2182,320.2284,110.2047,249.9105,6.8759e-06,-1.79e-06,0.0,0 STARLINK-4501,1 53553U 22101AC  24020.87449770 -.00000179  00000-0  68759-5 0  9999,2 53553  53.2182 320.2284 0001482 110.2047 249.9105 15.08838770 79390,6917.884,95.438,540.774,538.724,0.0
53553.0,STARLINK-4501,PAYLOAD,2024-01-21 03:20:48,15.08852565,0.0001538,53.2176,319.0408,125.2788,234.8348,8.8507e-05,1.121e-05,0.0,0 STARLINK-4501,1 53553U 22101AC  24021.13944506  .00001121  00000-0  88507-4 0  9995,2 53553  53.2176 319.0408 0001538 125.2788 234.8348 15.08852565 78778,6917.842,95.437,540.771,538.643,0.0
53553.0,STARLINK-4501,PAYLOAD,2024-01-21 04:56:10,15.08872452,0.0001489,53.2185,318.7433,97.7526,262.3635,-0.00031758,-5.343e-05,0.0,0 STARLINK-4501,1 53553U 22101AC  24021.20568148 -.00005343  00000-0 -31758-3 0  9994,2 53553  53.2185 318.7433 0001489  97.7526 262.3635 15.08872452 78783,6917.781,95.436,540.676,538.616,0.0
53553.0,STARLINK-4501,PAYLOAD,2024-01-21 19:14:40,15.08834568,0.0001367,53.2192,316.0697,89.6759,270.4389,0.00011406,1.528e-05,0.0,0 STARLINK-4501,1 53553U 22101AC  24021.80185914  .00001528  00000-0  11406-3 0  9993,2 53553  53.2192 316.0697 0001367  89.6759 270.4389 15.08834568 78879,6917.897,95.438,540.708,538.816,0.0
53553.0,STARLINK-4501,PAYLOAD,2024-01-22 04:46:58,15.08849637,0.0001505,53.2185,314.2846,89.1635,270.953,0.00015885,2.242e-05,0.0,0 STARLINK-4501,1 53553U 22101AC  24022.19929009  .00002242  00000-0  15885-3 0  9996,2 53553  53.2185 314.2846 0001505  89.1635 270.9530 15.08849637 78932,6917.851,95.437,540.757,538.675,0.0
53553.0,STARLINK-4501,PAYLOAD,2024-01-23 01:26:59,15.08845651,0.0001751,53.2187,310.4176,108.1818,251.9365,6.3082e-05,7.16e-06,0.0,0 STARLINK-4501,1 53553U 22101AC  24023.06041387  .00000716  00000-0  63082-4 0  9994,2 53553  53.2187 310.4176 0001751 108.1818 251.9365 15.08845651 79068,6917.863,95.437,540.939,538.517,0.0
53553.0,STARLINK-4501,PAYLOAD,2024-01-23 22:06:59,15.08852908,0.0001764,53.2189,306.5494,122.4465,237.6698,5.0658e-05,5.18e-06,0.0,0 STARLINK-4501,1 53553U 22101AC  24023.92152640  .00000518  00000-0  50658-4 0  9999,2 53553  53.2189 306.5494 0001764 122.4465 237.6698 15.08852908 79850,6917.841,95.437,540.926,538.486,0.0
53553.0,STARLINK-4501,PAYLOAD,2024-01-24 01:17:46,15.08849095,0.0001651,53.2181,305.9569,123.1246,236.9905,2.9629e-05,1.84e-06,0.0,0 STARLINK-4501,1 53553U 22101AC  24024.05400832  .00000184  00000-0  29629-4 0  9996,2 53553  53.2181 305.9569 0001651 123.1246 236.9905 15.08849095 79876,6917.853,95.437,540.86,538.575,0.0
53553.0,STARLINK-4501,PAYLOAD,2024-01-24 21:57:47,15.08838796,0.0001536,53.2179,302.0896,115.2756,244.8395,-2.8448e-05,-7.41e-06,0.0,0 STARLINK-4501,1 53553U 22101AC  24024.91513717 -.00000741  00000-0 -28448-4 0  9997,2 53553  53.2179 302.0896 0001536 115.2756 244.8395 15.08838796 80008,6917.884,95.438,540.812,538.686,0.0
53553.0,STARLINK-4501,PAYLOAD,2024-01-25 01:08:33,15.08846027,0.0001443,53.2184,301.4945,102.2598,257.8556,-3.7595e-05,-8.86e-06,0.0,0 STARLINK-4501,1 53553U 22101AC  24025.04761316 -.00000886  00000-0 -37595-4 0  9995,2 53553  53.2184 301.4945 0001443 102.2598 257.8556 15.08846027 79365,6917.862,95.437,540.725,538.729,0.0
53553.0,STARLINK-4501,PAYLOAD,2024-01-25 21:48:35,15.08832349,0.0001397,53.2173,297.6282,103.4089,256.7059,5.508e-06,-2e-06,0.0,0 STARLINK-4501,1 53553U 22101AC  24025.90874110 -.00000200  00000-0  55080-5 0  9996,2 53553  53.2173 297.6282 0001397 103.4089 256.7059 15.08832349 80156,6917.904,95.438,540.735,538.802,0.0
53553.0,STARLINK-4501,PAYLOAD,2024-01-26 00:59:21,15.08832798,0.0001535,53.218,297.0379,102.3246,257.7918,3.6748e-05,2.97e-06,0.0,0 STARLINK-4501,1 53553U 22101AC  24026.04122127  .00000297  00000-0  36748-4 0  9990,2 53553  53.2180 297.0379 0001535 102.3246 257.7918 15.08832798 79513,6917.902,95.438,540.829,538.706,0.0
53553.0,STARLINK-4501,PAYLOAD,2024-01-26 23:14:45,15.08840683,0.000151,53.2175,292.8781,101.3083,258.8079,7.25e-05,8.66e-06,0.0,0 STARLINK-4501,1 53553U 22101AC  24026.96857990  .00000866  00000-0  72500-4 0  9992,2 53553  53.2175 292.8781 0001510 101.3083 258.8079 15.08840683 79655,6917.878,95.438,540.788,538.699,0.0
53553.0,STARLINK-4501,PAYLOAD,2024-01-27 21:30:09,15.08837335,0.000151,53.2173,288.7144,97.6561,262.4603,5.9849e-05,6.65e-06,0.0,0 STARLINK-4501,1 53553U 22101AC  24027.89594488  .00000665  00000-0  59849-4 0  9993,2 53553  53.2173 288.7144 0001510  97.6561 262.4603 15.08837335 80452,6917.889,95.438,540.798,538.709,0.0
53553.0,STARLINK-4501,PAYLOAD,2024-01-28 02:16:18,15.08838984,0.0001491,53.217,287.8193,87.4824,272.6338,6.7878e-05,7.92e-06,0.0,0 STARLINK-4501,1 53553U 22101AC  24028.09466403  .00000792  00000-0  67878-4 0  9993,2 53553  53.2170 287.8193 0001491  87.4824 272.6338 15.08838984 79828,6917.883,95.438,540.78,538.717,0.0
53553.0,STARLINK-4501,PAYLOAD,2024-01-28 22:56:19,15.08842392,0.0001603,53.2176,283.9541,83.4858,276.6317,7.4919e-05,9.05e-06,0.0,0 STARLINK-4501,1 53553U 22101AC  24028.95578236  .00000905  00000-0  74919-4 0  9996,2 53553  53.2176 283.9541 0001603  83.4858 276.6317 15.08842392 80614,6917.873,95.437,540.847,538.629,0.0
53553.0,STARLINK-4501,PAYLOAD,2024-01-29 00:31:42,15.08845077,0.0001644,53.2177,283.6567,81.528,278.5899,9.679e-05,1.253e-05,0.0,0 STARLINK-4501,1 53553U 22101AC  24029.02202014  .00001253  00000-0  96790-4 0  9991,2 53553  53.2177 283.6567 0001644  81.5280 278.5899 15.08845077 80623,6917.865,95.437,540.867,538.593,0.0
53553.0,STARLINK-4501,PAYLOAD,2024-01-30 22:37:53,15.08843414,0.0001811,53.2179,275.0359,72.7764,287.3427,4.0747e-07,-2.82e-06,0.0,0 STARLINK-4501,1 53553U 22101AC  24030.94298173 -.00000282  00000-0  40747-6 0  9990,2 53553  53.2179 275.0359 0001811  72.7764 287.3427 15.08843414 80914,6917.87,95.437,540.988,538.482,0.0
